#aV2015  5 19  0  0  0.00000000     288 DD+AD WGS84 FIT  NGA
## 1845 172800.00000000   300.00000000 57161 0.0000000000000
+   31     1  2  3  4  5  6  7  9 10 11 12 13 14 15 16 17 18
+         19 20 21 22 23 24 25 26 27 28 29 30 31 32  0  0  0
+          0  0  0  0  0  0  0  0  0  0  0  0  0  0  0  0  0
+          0  0  0  0  0  0  0  0  0  0  0  0  0  0  0  0  0
+          0  0  0  0  0  0  0  0  0  0  0  0  0  0  0  0  0
++         2  2  2  2  2  2  2  2  2  2  2  2  2  2  2  2  2
++         2  2  2  2  2  2  2  2  2  2  2  2  2  2  0  0  0
++         0  0  0  0  0  0  0  0  0  0  0  0  0  0  0  0  0
++         0  0  0  0  0  0  0  0  0  0  0  0  0  0  0  0  0
++         0  0  0  0  0  0  0  0  0  0  0  0  0  0  0  0  0
%c cc cc ccc ccc cccc cccc cccc cccc ccccc ccccc ccccc ccccc
%c cc cc ccc ccc cccc cccc cccc cccc ccccc ccccc ccccc ccccc
%f  0.0000000  0.000000000  0.00000000000  0.000000000000000
%f  0.0000000  0.000000000  0.00000000000  0.000000000000000
%i    0    0    0    0      0      0      0      0         0
%i    0    0    0    0      0      0      0      0         0
/*      NGA, ST. LOUIS,MO.                                  
/*   EPHEMERIS COMPUTED FROM  1 DAYS OF DATA                
/*   EPOCHA SMOOTHER                                       
/* CCCCCCCCCCCCCCCCCCCCCCCCCCCCCCCCCCCCCCCCCCCCCCCCCCCCCCCCC
*  2015  5 19 19  0  0.00000000
P  1   5830.862954 -18356.208655 -18255.839592     -5.382070                    
V  1  20673.876580 -10535.248585  17429.225031      0.004646                    
P  2 -21345.700498  15333.776610   1603.264748    566.830649                    
V  2  -3465.888115  -2319.854125 -31503.174875      0.023006                    
P  3  -4935.488726 -17871.510371 -18989.460130    331.136099                    
V  3  21885.454769  10335.793173 -15440.729556      0.095968                    
P  4  14139.874294 -19148.913835 -11822.998308    -15.388153                    
V  4  14020.020528  -5264.852700  26272.143471     -0.015032                    
P  5 -15225.781167   8279.185198  20123.049950   -239.643715                    
V  5 -22094.496359 -13104.124908 -11114.608783      0.045954                    
P  6 -23107.470945   3941.539306 -12481.793916    164.464924                    
V  6  12320.659941 -10236.453210 -26043.035194      0.091519                    
P  7  -8987.562831 -12172.987253  21944.568958    463.199303                    
V  7  23900.328379 -13752.504069   1805.337436      0.024875                    
P  9  -7567.668338 -23474.043734   9821.500494   -158.519374                    
V  9   2263.968281 -12562.361336 -28278.373914     -0.060757                    
P 10 -24530.914126  -8427.668670   6279.329852   -175.534535                    
V 10  -5875.580676  -6712.769347 -29685.678420     -0.015925                    
P 11   7060.996416 -23176.226136 -11267.919843   -579.299253                    
V 11  11842.818769  -8120.142217  25453.545523     -0.025478                    
P 12   1601.267789  16838.529083 -20637.290881    294.299347                    
V 12 -22380.908164 -12931.174346 -12131.254730      0.031613                    
P 13 -12443.508650  17008.788588  16096.393617   -115.857055                    
V 13    212.347304 -20685.625585  21707.329284     -0.033479                    
P 14  14120.216245   7439.553648 -21015.988539     62.326013                    
V 14  -2047.053051  27126.203417   7984.025403     -0.028244                    
P 15  -4281.348421  24709.362836   8156.978527   -250.136846                    
V 15  -4416.569101 -10322.863623  28952.961879     -0.021718                    
P 16  15704.232314  -6021.707439  20577.408691   -127.554645                    
V 16  21772.072797  14447.288650 -11978.578741      0.037663                    
P 17 -14051.886122  -7893.190423 -20859.406226   -171.951372                    
V 17   1213.415541 -27065.178645   9093.935182     -0.017896                    
P 18  20786.316001  15877.710869   5947.621902    402.703389                    
V 18  -7727.831042   -117.680331  29534.902476      0.029186                    
P 19   8422.822860 -22808.744318   9917.009905   -510.896620                    
V 19   1745.512343  13166.811450  28717.784076     -0.011291                    
P 20 -12570.542093  11156.007365  20436.042441    321.483213                    
V 20 -23633.650186 -11846.718494  -7907.452469      0.036569                    
P 21  12228.397431  11129.068417  21532.564102   -447.534345                    
V 21 -21609.951165  14080.782175   4802.527161     -0.035365                    
P 22  24696.627389   8321.010557  -5358.327030    352.052030                    
V 22   4550.771541   6626.049473  29774.136114      0.040092                    
P 23   -692.896243 -26307.969635    254.968669   -109.385498                    
V 23   3576.621914   -224.225215 -31777.805629     -0.024611                    
P 24  -8489.121489  19092.079432 -16349.377567    -48.538464                    
V 24 -18673.267735   9329.441021  20779.268857     -0.006558                    
P 25  14443.134808  18082.241703 -13281.540700    -30.831317                    
V 25 -15374.234995  -6500.359903 -25594.301051     -0.038657                    
P 26  22456.631189    935.564629  14145.875576     30.135872                    
V 26  14768.960840  10476.066165 -24116.309104      0.013728                    
P 27  12304.610773 -14561.957047  18427.493463     73.088448                    
V 27   2101.120372  23408.040136  17192.252713      0.026915                    
P 28 -22830.281893 -13501.101194  -1474.510875    440.932939                    
V 28  -1189.513315  -2997.998823  32240.813927      0.025406                    
P 29   4869.133697  24808.817434   8252.294646    611.469473                    
V 29  -2505.276507  10345.825886 -29658.853625      0.022770                    
P 30 -18542.191938  -5065.196729  18346.283128    -57.268203                    
V 30  20041.235196 -12007.616482  16863.717667      0.054355                    
P 31  24168.436149  -6414.135852  -9319.408773    315.442023                    
V 31  -9409.936322   7520.873392 -28846.768774     -0.010952                    
P 32   9806.553810 -12084.921165 -21515.771343   -147.139288                    
V 32  22612.678155  15410.559620   2188.273252      0.096596                    
EOF
